ONEWEB-0277             
1 48995U 21060AE  26197.61017721  .00000064  00000+0  13251-3 0  9998
2 48995  87.9073 222.9377 0002153  98.0198 262.1177 13.16595173243432
ONEWEB-0278             
1 48996U 21060AF  26197.60067640  .00000121  00000+0  28352-3 0  9995
2 48996  87.9078 222.9318 0002184  89.2978 270.8403 13.16594175243568
ONEWEB-0279             
1 48997U 21060AG  26197.60859226  .00000059  00000+0  12182-3 0  9999
2 48997  87.9079 222.9283 0002003 100.6563 259.4793 13.16594469243492
ONEWEB-0280             
1 48998U 21060AH  26197.62362500 -.00000109  00000+0 -31796-3 0  9996
2 48998  87.9082 222.9293 0002447  94.0260 266.1151 13.16595226243439
ONEWEB-0281             
1 48999U 21060AJ  26197.62912866  .00003315  00000+0  86310-2 0  9994
2 48999  87.9081 222.9239 0002324  90.3474 269.7923 13.16620403243509
ONEWEB-0282             
1 49000U 21060AK  26197.58325394  .00000039  00000+0  67429-4 0  9999
2 49000  87.9076 222.9406 0002187  95.9810 264.1570 13.16595023243477
ONEWEB-0283             
1 49001U 21060AL  26197.57216998 -.00000039  00000+0 -13469-3 0  9994
2 49001  87.9076 222.9420 0002038  97.7951 262.3412 13.16593636243489
ONEWEB-0284             
1 49002U 21060AM  26197.56584516 -.00000080  00000+0 -24366-3 0  9992
2 49002  87.9079 222.9373 0002394  90.7211 269.4194 13.16594228243468
ONEWEB-0285             
1 49075U 21075A   26197.41159661  .00000291  00000+0  77392-3 0  9990
2 49075  87.8971 344.8516 0001778  90.2319 269.9013 13.12445301239047
ONEWEB-0286             
1 49076U 21075B   26197.85108392  .00000316  00000+0  84167-3 0  9990
2 49076  87.8963 344.7787 0001757  89.7327 270.4003 13.12442842238454
ONEWEB-0287             
1 49077U 21075C   26197.47801274  .00000024  00000+0  28386-4 0  9996
2 49077  87.9144   0.0383 0001865  79.5681 280.5661 13.17648522237483
ONEWEB-0288             
1 49078U 21075D   26197.44630487 -.00000275  00000+0 -80003-3 0  9993
2 49078  87.8971 344.8384 0001961  89.6215 270.5138 13.12443005239027
ONEWEB-0289             
1 49079U 21075E   26197.51682367 -.00000010  00000+0 -58806-4 0  9990
2 49079  87.9153   0.0493 0002283  96.5832 263.5560 13.17649963238063
ONEWEB-0290             
1 49080U 21075F   26197.48982166  .00000019  00000+0  14779-4 0  9996
2 49080  87.9154   0.0275 0002391  96.9251 263.2153 13.17650848237476
ONEWEB-0291             
1 49081U 21075G   26197.85433809 -.00000025  00000+0 -96792-4 0  9997
2 49081  87.9149 359.9602 0002100  84.9152 275.2219 13.17646735237517
ONEWEB-0293             
1 49082U 21075H   26197.49994286  .00000028  00000+0  38997-4 0  9993
2 49082  87.9147   0.0339 0002031  92.7854 267.3510 13.17650283237492
ONEWEB-0294             
1 49083U 21075J   26197.45308580 -.00000130  00000+0 -39762-3 0  9992
2 49083  87.8974 344.8408 0002208  97.3180 262.8199 13.12443901238413
ONEWEB-0295             
1 49084U 21075K   26197.49910600  .00000067  00000+0  13882-3 0  9991
2 49084  87.9145   0.0378 0001983  84.2655 275.8702 13.17650363237457
ONEWEB-0296             
1 49085U 21075L   26197.81393993 -.00000357  00000+0 -10264-2 0  9992
2 49085  87.8972 344.7774 0002022  87.4200 272.7160 13.12441928238465
ONEWEB-0297             
1 49086U 21075M   26197.84443797  .00000123  00000+0  30762-3 0  9999
2 49086  87.8962 344.7785 0001859  92.6431 267.4910 13.12443501239079
ONEWEB-0298             
1 49087U 21075N   26197.50348338  .00000057  00000+0  11427-3 0  9991
2 49087  87.9146   0.0353 0001760  91.6218 268.5115 13.17648914237483
ONEWEB-0299             
1 49088U 21075P   26197.50501530  .00000019  00000+0  16525-4 0  9990
2 49088  87.9156   0.0181 0001846  88.1291 272.0052 13.17648338237469
ONEWEB-0300             
1 49089U 21075Q   26197.83681230 -.00000146  00000+0 -43991-3 0  9992
2 49089  87.8974 344.7624 0001474  95.6000 264.5296 13.12443537239091
ONEWEB-0301             
1 49090U 21075R   26197.43952486 -.00000431  00000+0 -12344-2 0  9998
2 49090  87.8971 344.8389 0001520 101.5961 258.5338 13.12443270238402
ONEWEB-0302             
1 49091U 21075S   26197.57845677 -.00000182  00000+0 -54242-3 0  9994
2 49091  87.8968 344.8238 0002178  94.1442 265.9935 13.12440727238402
ONEWEB-0304             
1 49092U 21075T   26197.85938465 -.00000003  00000+0 -41848-4 0  9995
2 49092  87.9143 359.9670 0001907  87.6325 272.5025 13.17647331237488
ONEWEB-0305             
1 49093U 21075U   26197.85263466  .00000017  00000+0  96207-5 0  9991
2 49093  87.9156 359.9551 0001876  80.1926 279.9417 13.17647979237519
ONEWEB-0308             
1 49094U 21075V   26197.41920043  .00000061  00000+0  13556-3 0  9998
2 49094  87.8973 344.8477 0001870  97.6991 262.4350 13.12441493238393
ONEWEB-0309             
1 49095U 21075W   26197.47631949 -.00000011  00000+0 -60748-4 0  9992
2 49095  87.9147   0.0360 0002377  92.4678 267.6726 13.17650896237430
ONEWEB-0310             
1 49096U 21075X   26197.81562830 -.00000424  00000+0 -12139-2 0  9990
2 49096  87.8965 344.7876 0001880  97.2290 262.9052 13.12442389239072
ONEWEB-0311             
1 49097U 21075Y   26197.48307736 -.00000039  00000+0 -13467-3 0  9994
2 49097  87.9146   0.0348 0001724  78.9250 281.2075 13.17648100237486
