OBJECT_NAME,OBJECT_ID,EPOCH,MEAN_MOTION,ECCENTRICITY,INCLINATION,RA_OF_ASC_NODE,ARG_OF_PERICENTER,MEAN_ANOMALY,EPHEMERIS_TYPE,CLASSIFICATION_TYPE,NORAD_CAT_ID,ELEMENT_SET_NO,REV_AT_EPOCH,BSTAR,MEAN_MOTION_DOT,MEAN_MOTION_DDOT
ONEWEB-0277,2021-060AE,2026-07-16T14:38:39.310944,13.16595173,.0002153,87.9073,222.9377,98.0198,262.1177,0,U,48995,999,24343,.13251E-3,.64E-6,0
ONEWEB-0278,2021-060AF,2026-07-16T14:24:58.440960,13.16594175,.0002184,87.9078,222.9318,89.2978,270.8403,0,U,48996,999,24356,.28352E-3,.121E-5,0
ONEWEB-0279,2021-060AG,2026-07-16T14:36:22.371264,13.16594469,.0002003,87.9079,222.9283,100.6563,259.4793,0,U,48997,999,24349,.12182E-3,.59E-6,0
ONEWEB-0280,2021-060AH,2026-07-16T14:58:01.200000,13.16595226,.0002447,87.9082,222.9293,94.0260,266.1151,0,U,48998,999,24343,-.31796E-3,-.109E-5,0
ONEWEB-0281,2021-060AJ,2026-07-16T15:05:56.716224,13.16620403,.0002324,87.9081,222.9239,90.3474,269.7923,0,U,48999,999,24350,.8631E-2,.3315E-4,0
ONEWEB-0282,2021-060AK,2026-07-16T13:59:53.140416,13.16595023,.0002187,87.9076,222.9406,95.9810,264.1570,0,U,49000,999,24347,.67429E-4,.39E-6,0
ONEWEB-0283,2021-060AL,2026-07-16T13:43:55.486272,13.16593636,.0002038,87.9076,222.9420,97.7951,262.3412,0,U,49001,999,24348,-.13469E-3,-.39E-6,0
ONEWEB-0284,2021-060AM,2026-07-16T13:34:49.021824,13.16594228,.0002394,87.9079,222.9373,90.7211,269.4194,0,U,49002,999,24346,-.24366E-3,-.8E-6,0
ONEWEB-0285,2021-075A,2026-07-16T09:52:41.947104,13.12445301,.0001778,87.8971,344.8516,90.2319,269.9013,0,U,49075,999,23904,.77392E-3,.291E-5,0
ONEWEB-0286,2021-075B,2026-07-16T20:25:33.650688,13.12442842,.0001757,87.8963,344.7787,89.7327,270.4003,0,U,49076,999,23845,.84167E-3,.316E-5,0
ONEWEB-0287,2021-075C,2026-07-16T11:28:20.300736,13.17648522,.0001865,87.9144,0.0383,79.5681,280.5661,0,U,49077,999,23748,.28386E-4,.24E-6,0
ONEWEB-0288,2021-075D,2026-07-16T10:42:40.740768,13.12443005,.0001961,87.8971,344.8384,89.6215,270.5138,0,U,49078,999,23902,-.80003E-3,-.275E-5,0
ONEWEB-0289,2021-075E,2026-07-16T12:24:13.565088,13.17649963,.0002283,87.9153,0.0493,96.5832,263.5560,0,U,49079,999,23806,-.58806E-4,-.1E-6,0
ONEWEB-0290,2021-075F,2026-07-16T11:45:20.591424,13.17650848,.0002391,87.9154,0.0275,96.9251,263.2153,0,U,49080,999,23747,.14779E-4,.19E-6,0
ONEWEB-0291,2021-075G,2026-07-16T20:30:14.810976,13.17646735,.00021,87.9149,359.9602,84.9152,275.2219,0,U,49081,999,23751,-.96792E-4,-.25E-6,0
ONEWEB-0293,2021-075H,2026-07-16T11:59:55.063104,13.17650283,.0002031,87.9147,0.0339,92.7854,267.3510,0,U,49082,999,23749,.38997E-4,.28E-6,0
ONEWEB-0294,2021-075J,2026-07-16T10:52:26.613120,13.12443901,.0002208,87.8974,344.8408,97.3180,262.8199,0,U,49083,999,23841,-.39762E-3,-.13E-5,0
ONEWEB-0295,2021-075K,2026-07-16T11:58:42.758400,13.17650363,.0001983,87.9145,0.0378,84.2655,275.8702,0,U,49084,999,23745,.13882E-3,.67E-6,0
ONEWEB-0296,2021-075L,2026-07-16T19:32:04.409952,13.12441928,.0002022,87.8972,344.7774,87.4200,272.7160,0,U,49085,999,23846,-.10264E-2,-.357E-5,0
ONEWEB-0297,2021-075M,2026-07-16T20:15:59.440608,13.12443501,.0001859,87.8962,344.7785,92.6431,267.4910,0,U,49086,999,23907,.30762E-3,.123E-5,0
ONEWEB-0298,2021-075N,2026-07-16T12:05:00.964032,13.17648914,.000176,87.9146,0.0353,91.6218,268.5115,0,U,49087,999,23748,.11427E-3,.57E-6,0
ONEWEB-0299,2021-075P,2026-07-16T12:07:13.321920,13.17648338,.0001846,87.9156,0.0181,88.1291,272.0052,0,U,49088,999,23746,.16525E-4,.19E-6,0
ONEWEB-0300,2021-075Q,2026-07-16T20:05:00.582720,13.12443537,.0001474,87.8974,344.7624,95.6000,264.5296,0,U,49089,999,23909,-.43991E-3,-.146E-5,0
ONEWEB-0301,2021-075R,2026-07-16T10:32:54.947904,13.12443270,.000152,87.8971,344.8389,101.5961,258.5338,0,U,49090,999,23840,-.12344E-2,-.431E-5,0
ONEWEB-0302,2021-075S,2026-07-16T13:52:58.664928,13.12440727,.0002178,87.8968,344.8238,94.1442,265.9935,0,U,49091,999,23840,-.54242E-3,-.182E-5,0
ONEWEB-0304,2021-075T,2026-07-16T20:37:30.833760,13.17647331,.0001907,87.9143,359.9670,87.6325,272.5025,0,U,49092,999,23748,-.41848E-4,-.3E-7,0
ONEWEB-0305,2021-075U,2026-07-16T20:27:47.634624,13.17647979,.0001876,87.9156,359.9551,80.1926,279.9417,0,U,49093,999,23751,.96207E-5,.17E-6,0
ONEWEB-0308,2021-075V,2026-07-16T10:03:38.917152,13.12441493,.000187,87.8973,344.8477,97.6991,262.4350,0,U,49094,999,23839,.13556E-3,.61E-6,0
ONEWEB-0309,2021-075W,2026-07-16T11:25:54.003936,13.17650896,.0002377,87.9147,0.0360,92.4678,267.6726,0,U,49095,999,23743,-.60748E-4,-.11E-6,0
ONEWEB-0310,2021-075X,2026-07-16T19:34:30.285120,13.12442389,.000188,87.8965,344.7876,97.2290,262.9052,0,U,49096,999,23907,-.12139E-2,-.424E-5,0
ONEWEB-0311,2021-075Y,2026-07-16T11:35:37.883904,13.17648100,.0001724,87.9146,0.0348,78.9250,281.2075,0,U,49097,999,23748,-.13467E-3,-.39E-6,0
